NORAD_CAT_ID,OBJECT_NAME,OBJECT_TYPE,EPOCH,MEAN_MOTION,ECCENTRICITY,INCLINATION,RA_OF_ASC_NODE,ARG_OF_PERICENTER,MEAN_ANOMALY,BSTAR,MEAN_MOTION_DOT,MEAN_MOTION_DDOT,TLE_LINE0,TLE_LINE1,TLE_LINE2,SEMIMAJOR_AXIS,PERIOD,APOGEE,PERIGEE,DECAYED
55634.0,STARLINK-5500,PAYLOAD,2024-08-13 04:37:35,14.98336013,0.0003498,69.9985,210.4552,269.0888,90.987,4.1147e-05,3.98e-06,0.0,0 STARLINK-5500,1 55634U 23021G   24226.19277438  .00000398  00000-0  41147-4 0  9999,2 55634  69.9985 210.4552 0003498 269.0888  90.9870 14.98336013 82095,6950.174,96.107,574.47,569.608,0.0
55634.0,STARLINK-5500,PAYLOAD,2024-08-13 12:38:15,14.98345914,0.0003471,69.9997,209.6134,269.0319,91.0443,0.00021844,2.515e-05,0.0,0 STARLINK-5500,1 55634U 23021G   24226.52656747  .00002515  00000-0  21844-3 0  9994,2 55634  69.9997 209.6134 0003471 269.0319  91.0443 14.98345914 82148,6950.144,96.106,574.421,569.596,0.0
55634.0,STARLINK-5500,PAYLOAD,2024-08-13 14:14:24,14.98313503,0.0003218,70.0001,209.4452,273.3257,86.7534,-0.00055418,-6.696e-05,0.0,0 STARLINK-5500,1 55634U 23021G   24226.59334113 -.00006696  00000-0 -55418-3 0  9991,2 55634  70.0001 209.4452 0003218 273.3257  86.7534 14.98313503 82451,6950.244,96.108,574.345,569.872,0.0
55634.0,STARLINK-5500,PAYLOAD,2024-08-13 15:50:32,14.98313283,0.0003316,70.0,209.2769,269.8023,90.2756,-0.00054353,-6.57e-05,0.0,0 STARLINK-5500,1 55634U 23021G   24226.66010125 -.00006570  00000-0 -54353-3 0  9991,2 55634  70.0000 209.2769 0003316 269.8023  90.2756 14.98313283 82168,6950.245,96.108,574.414,569.805,0.0
55634.0,STARLINK-5500,PAYLOAD,2024-08-13 22:15:05,14.98314569,0.0003421,69.9998,208.6036,267.433,92.6438,-0.00038072,-4.631e-05,0.0,0 STARLINK-5500,1 55634U 23021G   24226.92714266 -.00004631  00000-0 -38072-3 0  9993,2 55634  69.9998 208.6036 0003421 267.4330  92.6438 14.98314569 82502,6950.241,96.108,574.483,569.728,0.0
55634.0,STARLINK-5500,PAYLOAD,2024-08-14 04:39:37,14.98314833,0.0003303,70.0002,207.9304,266.0701,94.008,-1.0007e-05,-2.12e-06,0.0,0 STARLINK-5500,1 55634U 23021G   24227.19418315 -.00000212  00000-0 -10007-4 0  9999,2 55634  70.0002 207.9304 0003303 266.0701  94.0080 14.98314833 82241,6950.24,96.108,574.4,569.809,0.0
55634.0,STARLINK-5500,PAYLOAD,2024-08-14 09:28:01,14.98314137,0.0003343,70.0001,207.4255,264.6149,95.4629,0.00033716,3.931e-05,0.0,0 STARLINK-5500,1 55634U 23021G   24227.39446674  .00003931  00000-0  33716-3 0  9990,2 55634  70.0001 207.4255 0003343 264.6149  95.4629 14.98314137 82571,6950.242,96.108,574.43,569.783,0.0
55634.0,STARLINK-5500,PAYLOAD,2024-08-15 04:41:39,14.98316314,0.0003352,70.0001,205.4058,264.3602,95.7175,0.00072265,8.537e-05,0.0,0 STARLINK-5500,1 55634U 23021G   24228.19559918  .00008537  00000-0  72265-3 0  9994,2 55634  70.0001 205.4058 0003352 264.3602  95.7175 14.98316314 82399,6950.235,96.108,574.43,569.77,0.0
55634.0,STARLINK-5500,PAYLOAD,2024-08-15 14:18:28,14.98323352,0.0003343,69.9999,204.3958,264.0159,96.0619,0.0007209,8.518e-05,0.0,0 STARLINK-5500,1 55634U 23021G   24228.59616164  .00008518  00000-0  72090-3 0  9990,2 55634  69.9999 204.3958 0003343 264.0159  96.0619 14.98323352 82750,6950.213,96.107,574.402,569.755,0.0
55634.0,STARLINK-5500,PAYLOAD,2024-08-15 15:54:36,14.98324705,0.0003344,69.9999,204.2275,263.8928,96.185,0.00073118,8.641e-05,0.0,0 STARLINK-5500,1 55634U 23021G   24228.66292185  .00008641  00000-0  73118-3 0  9990,2 55634  69.9999 204.2275 0003344 263.8928  96.1850 14.98324705 82765,6950.209,96.107,574.398,569.75,0.0
55634.0,STARLINK-5500,PAYLOAD,2024-08-16 04:43:40,14.98334103,0.0003357,69.9999,202.8809,263.2857,96.792,0.00076519,9.05e-05,0.0,0 STARLINK-5500,1 55634U 23021G   24229.19700217  .00009050  00000-0  76519-3 0  9992,2 55634  69.9999 202.8809 0003357 263.2857  96.7920 14.98334103 82544,6950.18,96.107,574.378,569.712,0.0
55634.0,STARLINK-5500,PAYLOAD,2024-08-16 11:08:13,14.98339641,0.0003353,69.9998,202.2076,263.2337,96.8441,0.00079459,9.403e-05,0.0,0 STARLINK-5500,1 55634U 23021G   24229.46404076  .00009403  00000-0  79459-3 0  9994,2 55634  69.9998 202.2076 0003353 263.2337  96.8441 14.98339641 82880,6950.163,96.106,574.358,569.698,0.0
55634.0,STARLINK-5500,PAYLOAD,2024-08-17 04:45:41,14.98351142,0.000336,69.9999,200.3559,262.6514,97.4263,0.00072045,8.519e-05,0.0,0 STARLINK-5500,1 55634U 23021G   24230.19839298  .00008519  00000-0  72045-3 0  9995,2 55634  69.9999 200.3559 0003360 262.6514  97.4263 14.98351142 82692,6950.128,96.106,574.328,569.657,0.0
55634.0,STARLINK-5500,PAYLOAD,2024-08-17 12:46:20,14.98378728,0.0003424,69.9994,199.5136,265.545,94.5318,0.0015352,0.00018296,0.0,0 STARLINK-5500,1 55634U 23021G   24230.53218079  .00018296  00000-0  15352-2 0  9991,2 55634  69.9994 199.5136 0003424 265.5450  94.5318 14.98378728 82743,6950.042,96.104,574.287,569.528,0.0
55634.0,STARLINK-5500,PAYLOAD,2024-08-17 20:47:00,14.98349739,0.0003269,70.0001,198.6727,266.4303,93.6482,-5.8684e-05,-7.94e-06,0.0,0 STARLINK-5500,1 55634U 23021G   24230.86598151 -.00000794  00000-0 -58684-4 0  9992,2 55634  70.0001 198.6727 0003269 266.4303  93.6482 14.98349739 82792,6950.132,96.106,574.269,569.725,0.0
55634.0,STARLINK-5500,PAYLOAD,2024-08-17 22:23:08,14.98349526,0.0003281,70.0,198.5044,265.6954,94.383,0.00012204,1.364e-05,0.0,0 STARLINK-5500,1 55634U 23021G   24230.93274205  .00001364  00000-0  12204-3 0  9990,2 55634  70.0000 198.5044 0003281 265.6954  94.3830 14.98349526 83104,6950.133,96.106,574.278,569.717,0.0
55634.0,STARLINK-5500,PAYLOAD,2024-08-18 04:47:40,14.9835075,0.0003277,70.0001,197.8311,266.4584,93.62,0.00017149,1.955e-05,0.0,0 STARLINK-5500,1 55634U 23021G   24231.19977885  .00001955  00000-0  17149-3 0  9992,2 55634  70.0001 197.8311 0003277 266.4584  93.6200 14.98350750 83145,6950.129,96.106,574.271,569.716,0.0
55634.0,STARLINK-5500,PAYLOAD,2024-08-18 12:48:21,14.98338749,0.0003178,70.0003,196.9895,267.7976,92.2819,-8.7011e-05,-1.131e-05,0.0,0 STARLINK-5500,1 55634U 23021G   24231.53357800 -.00001131  00000-0 -87011-4 0  9993,2 55634  70.0003 196.9895 0003178 267.7976  92.2819 14.98338749 82899,6950.166,96.106,574.24,569.822,0.0
55634.0,STARLINK-5500,PAYLOAD,2024-08-18 22:25:09,14.98342646,0.0003048,70.0008,195.9792,270.3587,89.7222,0.0012667,0.00015059,0.0,0 STARLINK-5500,1 55634U 23021G   24231.93413847  .00015059  00000-0  12667-2 0  9996,2 55634  70.0008 195.9792 0003048 270.3587  89.7222 14.98342646 83254,6950.154,96.106,574.137,569.9,0.0
55634.0,STARLINK-5500,PAYLOAD,2024-08-19 12:50:22,14.98337209,0.0003129,70.0006,194.4649,270.2165,89.8636,0.00049914,5.869e-05,0.0,0 STARLINK-5500,1 55634U 23021G   24232.53497739  .00005869  00000-0  49914-3 0  9999,2 55634  70.0006 194.4649 0003129 270.2165  89.8636 14.98337209 83044,6950.171,96.107,574.21,569.861,0.0
55634.0,STARLINK-5500,PAYLOAD,2024-08-20 04:51:42,14.98336838,0.0003075,70.001,192.7816,270.1936,89.8871,0.00051692,6.081e-05,0.0,0 STARLINK-5500,1 55634U 23021G   24233.20257784  .00006081  00000-0  51692-3 0  9991,2 55634  70.0010 192.7816 0003075 270.1936  89.8871 14.98336838 83140,6950.172,96.107,574.174,569.9,0.0
55634.0,STARLINK-5500,PAYLOAD,2024-08-20 06:27:50,14.98337693,0.000308,70.001,192.6132,269.854,90.2266,0.00055678,6.558e-05,0.0,0 STARLINK-5500,1 55634U 23021G   24233.26933760  .00006558  00000-0  55678-3 0  9999,2 55634  70.0010 192.6132 0003080 269.8540  90.2266 14.98337693 83450,6950.169,96.107,574.175,569.893,0.0
55634.0,STARLINK-5500,PAYLOAD,2024-08-21 04:53:43,14.98340376,0.0003024,70.0011,190.2568,270.1224,89.9589,0.00040221,4.711e-05,0.0,0 STARLINK-5500,1 55634U 23021G   24234.20397587  .00004711  00000-0  40221-3 0  9992,2 55634  70.0011 190.2568 0003024 270.1224  89.9589 14.98340376 83297,6950.161,96.106,574.128,569.924,0.0
55634.0,STARLINK-5500,PAYLOAD,2024-08-21 06:29:51,14.98341256,0.0003027,70.0011,190.0885,270.1888,89.8924,0.00042551,4.989e-05,0.0,0 STARLINK-5500,1 55634U 23021G   24234.27073547  .00004989  00000-0  42551-3 0  9991,2 55634  70.0011 190.0885 0003027 270.1888  89.8924 14.98341256 83601,6950.158,96.106,574.127,569.919,0.0
55634.0,STARLINK-5500,PAYLOAD,2024-08-21 20:55:04,14.98329425,0.0003012,70.0013,188.5737,270.5737,89.5077,5.2816e-05,5.37e-06,0.0,0 STARLINK-5500,1 55634U 23021G   24234.87157906  .00000537  00000-0  52816-4 0  9990,2 55634  70.0013 188.5737 0003012 270.5737  89.5077 14.98329425 83398,6950.195,96.107,574.153,569.966,0.0
